DMSP 5D-3 F16 (USA 172) 
1 28054U 03048A   26200.63508222 -.00000062  00000+0 -86009-5 0  9999
2 28054  98.9896 224.6769 0007984  60.2161  13.3263 14.14484721174073
METEOSAT-9 (MSG-2)      
1 28912U 05049B   26200.20164044  .00000114  00000+0  00000+0 0  9995
2 28912   9.4322  53.8482 0002395 357.9817   3.4307  1.00274349  7322
DMSP 5D-3 F17 (USA 191) 
1 29522U 06050A   26200.62612919 -.00000031  00000+0  63351-5 0  9994
2 29522  98.7389 206.5339 0009465 329.6431  30.4193 14.14996251 17017
FENGYUN 3A              
1 32958U 08026A   26200.46967919  .00000017  00000+0  28711-4 0  9994
2 32958  98.6886 140.7001 0009511  40.7784 319.4102 14.19577008939983
EWS-G3 (GOES 14)        
1 35491U 09033A   26200.57327447 -.00000364  00000+0  00000+0 0  9998
2 35491   1.7714  82.6421 0002095  39.2770 144.1404  1.00096239  6915
DMSP 5D-3 F18 (USA 210) 
1 35951U 09057A   26200.59953038  .00000151  00000+0  10129-3 0  9998
2 35951  98.9059 181.3019 0011492 153.3386 206.8380 14.14913553864173
EWS-G2 (GOES 15)        
1 36411U 10008A   26200.49030808  .00000018  00000+0  00000+0 0  9993
2 36411   1.3646  82.4164 0005419  54.3581  40.2774  1.00269367 59964
COMS 1                  
1 36744U 10032A   26200.46690797 -.00000211  00000+0  00000+0 0  9991
2 36744   4.8863  74.9675 0011395  15.0539 320.3988  0.99166959 51402
FENGYUN 3B              
1 37214U 10059A   26200.63997436  .00000436  00000+0  24866-3 0  9990
2 37214  98.9598 246.7894 0023174  94.6061  57.3967 14.14849473812014
SUOMI NPP               
1 37849U 11061A   26200.62309333  .00000018  00000+0  29392-4 0  9996
2 37849  98.7955 141.2788 0000968 193.3941 166.7209 14.19523117763045
METEOSAT-10 (MSG-3)     
1 38552U 12035B   26200.33517572 -.00000014  00000+0  00000+0 0  9991
2 38552   4.7461  60.8623 0001354  17.3650 339.6030  1.00272122 51172
METOP-B                 
1 38771U 12049A   26200.56940167  .00000031  00000+0  33941-4 0  9997
2 38771  98.6486 251.4196 0001241 231.3369 128.7697 14.21447151717861
INSAT-3D                
1 39216U 13038B   26200.57466115 -.00000344  00000+0  00000+0 0  9991
2 39216   2.0080  82.1344 0000995  45.3021 146.2893  1.00274080 47403
FENGYUN 3C              
1 39260U 13052A   26200.62421834  .00000015  00000+0  28884-4 0  9990
2 39260  98.5003 173.0136 0013523 292.2660  67.7081 14.15761218663155
METEOR-M 2              
1 40069U 14037A   26200.59530007 -.00000228  00000+0 -84989-4 0  9998
2 40069  98.5141 175.1897 0004862 312.2807  47.7958 14.21469322623926
HIMAWARI-8              
1 40267U 14060A   26200.64720647 -.00000280  00000+0  00000+0 0  9995
2 40267   0.0130  49.4195 0001241 113.6433 148.0214  1.00270393 43086
FENGYUN 2G              
1 40367U 14090A   26200.56876779 -.00000309  00000+0  00000+0 0  9990
2 40367   5.7190  72.4248 0003942 173.8408 355.2922  1.00279277 42324
METEOSAT-11 (MSG-4)     
1 40732U 15034A   26200.26571491  .00000055  00000+0  00000+0 0  9992
2 40732   3.2787  70.9023 0002066 355.0535 336.0201  1.00273131  7534
ELEKTRO-L 2             
1 41105U 15074A   26200.40361270 -.00000125  00000+0  00000+0 0  9998
2 41105   6.7732  70.1276 0000919 224.4522 133.4171  1.00272125 38822
SENTINEL-3A             
1 41335U 16011A   26200.61654826  .00000033  00000+0  31749-4 0  9996
2 41335  98.6234 267.5318 0001316  89.1983 270.9348 14.26740530542681
INSAT-3DR               
1 41752U 16054A   26200.56365443 -.00000081  00000+0  00000+0 0  9999
2 41752   0.0807  89.1003 0010395 180.4794 304.6711  1.00271307 36145
HIMAWARI-9              
1 41836U 16064A   26200.64720564 -.00000278  00000+0  00000+0 0  9999
2 41836   0.0382 246.7218 0001858 277.8863 146.5488  1.00274770 35530
GOES 16                 
1 41866U 16071A   26200.52835410 -.00000095  00000+0  00000+0 0  9991
2 41866   0.4150  85.4586 0000620  78.6539 218.7091  1.00271507 35424
FENGYUN 4A              
1 41882U 16077A   26200.57353447 -.00000362  00000+0  00000+0 0  9992
2 41882   2.4028  79.9179 0008170 158.9773  28.6181  1.00266538 35251
CYGFM05                 
1 41884U 16078A   26200.61517674  .00015193  00000+0  19637-3 0  9991
2 41884  34.9571  45.6272 0005325  85.4762 274.6571 15.57992083533810
CYGFM04                 
1 41885U 16078B   26200.60829227  .00020596  00000+0  21693-3 0  9999
2 41885  34.9330  11.6638 0004232 137.2153 222.8903 15.63266243534071
CYGFM02                 
1 41886U 16078C   26200.54357711  .00025171  00000+0  23194-3 0  9999
2 41886  34.9411   5.6335 0004964 137.7931 222.3179 15.66583806534249
CYGFM01                 
1 41887U 16078D   26200.65329538  .00015648  00000+0  19673-3 0  9993
2 41887  34.9402  46.1601 0005247  77.8766 282.2546 15.58717231533773
CYGFM08                 
1 41888U 16078E   26200.61861881  .00019444  00000+0  21832-3 0  9990
2 41888  34.9436  25.0769 0005978 118.1131 242.0200 15.61628438534044
CYGFM07                 
1 41890U 16078G   26200.57562392  .00019257  00000+0  21540-3 0  9991
2 41890  34.9453  13.6762 0004635 136.1173 223.9922 15.61736532534063
CYGFM03                 
1 41891U 16078H   26200.61078509  .00019206  00000+0  21496-3 0  9993
2 41891  34.9409  15.3703 0004306 118.2719 241.8442 15.61723400534045
