OBJECT_NAME,OBJECT_ID,EPOCH,MEAN_MOTION,ECCENTRICITY,INCLINATION,RA_OF_ASC_NODE,ARG_OF_PERICENTER,MEAN_ANOMALY,EPHEMERIS_TYPE,CLASSIFICATION_TYPE,NORAD_CAT_ID,ELEMENT_SET_NO,REV_AT_EPOCH,BSTAR,MEAN_MOTION_DOT,MEAN_MOTION_DDOT
DMSP 5D-3 F16 (USA 172),2003-048A,2026-07-19T15:14:31.103808,14.14484721,.00079845,98.9896,224.6769,60.2161,13.3263,0,U,28054,999,17407,-.86009E-5,-.62E-6,0
METEOSAT-9 (MSG-2),2005-049B,2026-07-19T04:50:21.734016,1.00274349,.0002395,9.4322,53.8482,357.9817,3.4307,0,U,28912,999,732,0,.114E-5,0
DMSP 5D-3 F17 (USA 191),2006-050A,2026-07-19T15:01:37.562016,14.14996251,.00094654,98.7389,206.5339,329.6431,30.4193,0,U,29522,999,1701,.6335083E-5,-.31E-6,0
FENGYUN 3A,2008-026A,2026-07-19T11:16:20.282016,14.19577008,.00095118,98.6886,140.7001,40.7784,319.4102,0,U,32958,999,93998,.28711125E-4,.17E-6,0
EWS-G3 (GOES 14),2009-033A,2026-07-19T13:45:30.914208,1.00096239,.00020956,1.7714,82.6421,39.2770,144.1404,0,U,35491,999,691,0,-.364E-5,0
DMSP 5D-3 F18 (USA 210),2009-057A,2026-07-19T14:23:19.424832,14.14913553,.00114922,98.9059,181.3019,153.3386,206.8380,0,U,35951,999,86417,.10129023E-3,.151E-5,0
EWS-G2 (GOES 15),2010-008A,2026-07-19T11:46:02.618112,1.00269367,.00054198,1.3646,82.4164,54.3581,40.2774,0,U,36411,999,5996,0,.18E-6,0
COMS 1,2010-032A,2026-07-19T11:12:20.848608,0.99166959,.00113959,4.8863,74.9675,15.0539,320.3988,0,U,36744,999,5140,0,-.211E-5,0
FENGYUN 3B,2010-059A,2026-07-19T15:21:33.784704,14.14849473,.00231741,98.9598,246.7894,94.6061,57.3967,0,U,37214,999,81201,.24866299E-3,.436E-5,0
SUOMI NPP,2011-061A,2026-07-19T14:57:15.263712,14.19523117,.00009689,98.7955,141.2788,193.3941,166.7209,0,U,37849,999,76304,.29392282E-4,.18E-6,0
METEOSAT-10 (MSG-3),2012-035B,2026-07-19T08:02:39.182208,1.00272122,.00013543,4.7461,60.8623,17.3650,339.6030,0,U,38552,999,5117,0,-.14E-6,0
METOP-B,2012-049A,2026-07-19T13:39:56.304288,14.21447151,.0001241,98.6486,251.4196,231.3369,128.7697,0,U,38771,999,71786,.3394142E-4,.31E-6,0
INSAT-3D,2013-038B,2026-07-19T13:47:30.723360,1.00274080,.00009959,2.0080,82.1344,45.3021,146.2893,0,U,39216,999,4740,0,-.344E-5,0
FENGYUN 3C,2013-052A,2026-07-19T14:58:52.464576,14.15761218,.00135232,98.5003,173.0136,292.2660,67.7081,0,U,39260,999,66315,.2888445E-4,.15E-6,0
METEOR-M 2,2014-037A,2026-07-19T14:17:13.926048,14.21469322,.0004862,98.5141,175.1897,312.2807,47.7958,0,U,40069,999,62392,-.84988901E-4,-.228E-5,0
HIMAWARI-8,2014-060A,2026-07-19T15:31:58.639008,1.00270393,.00012413,0.0130,49.4195,113.6433,148.0214,0,U,40267,999,4308,0,-.28E-5,0
FENGYUN 2G,2014-090A,2026-07-19T13:39:01.537056,1.00279277,.00039428,5.7190,72.4248,173.8408,355.2922,0,U,40367,999,4232,0,-.309E-5,0
METEOSAT-11 (MSG-4),2015-034A,2026-07-19T06:22:37.768224,1.00273131,.00020666,3.2787,70.9023,355.0535,336.0201,0,U,40732,999,753,0,.55E-6,0
ELEKTRO-L 2,2015-074A,2026-07-19T09:41:12.137280,1.00272125,.00009195,6.7732,70.1276,224.4522,133.4171,0,U,41105,999,3882,0,-.125E-5,0
SENTINEL-3A,2016-011A,2026-07-19T14:47:49.769664,14.26740530,.00013161,98.6234,267.5318,89.1983,270.9348,0,U,41335,999,54268,.31749399E-4,.33E-6,0
INSAT-3DR,2016-054A,2026-07-19T13:31:39.742752,1.00271307,.00103954,0.0807,89.1003,180.4794,304.6711,0,U,41752,999,3614,0,-.81E-6,0
HIMAWARI-9,2016-064A,2026-07-19T15:31:58.567296,1.00274770,.00018586,0.0382,246.7218,277.8863,146.5488,0,U,41836,999,3553,0,-.278E-5,0
GOES 16,2016-071A,2026-07-19T12:40:49.794240,1.00271507,.00006207,0.4150,85.4586,78.6539,218.7091,0,U,41866,999,3542,0,-.95E-6,0
FENGYUN 4A,2016-077A,2026-07-19T13:45:53.378208,1.00266538,.00081708,2.4028,79.9179,158.9773,28.6181,0,U,41882,999,3525,0,-.362E-5,0
CYGFM05,2016-078A,2026-07-19T14:45:51.270336,15.57992083,.00053258,34.9571,45.6272,85.4762,274.6571,0,U,41884,999,53381,.19636892E-3,.15193E-3,0
CYGFM04,2016-078B,2026-07-19T14:35:56.452128,15.63266243,.00042321,34.9330,11.6638,137.2153,222.8903,0,U,41885,999,53407,.21692897E-3,.20596E-3,0
CYGFM02,2016-078C,2026-07-19T13:02:45.062304,15.66583806,.00049642,34.9411,5.6335,137.7931,222.3179,0,U,41886,999,53424,.23193647E-3,.25171E-3,0
CYGFM01,2016-078D,2026-07-19T15:40:44.720832,15.58717231,.00052476,34.9402,46.1601,77.8766,282.2546,0,U,41887,999,53377,.1967307E-3,.15648E-3,0
CYGFM08,2016-078E,2026-07-19T14:50:48.665184,15.61628438,.00059789,34.9436,25.0769,118.1131,242.0200,0,U,41888,999,53404,.21831835E-3,.19444E-3,0
CYGFM07,2016-078G,2026-07-19T13:48:53.906688,15.61736532,.00046351,34.9453,13.6762,136.1173,223.9922,0,U,41890,999,53406,.21540066E-3,.19257E-3,0
CYGFM03,2016-078H,2026-07-19T14:39:31.831776,15.61723400,.00043068,34.9409,15.3703,118.2719,241.8442,0,U,41891,999,53404,.21496107E-3,.19206E-3,0
